NORAD_CAT_ID,OBJECT_NAME,OBJECT_TYPE,EPOCH,MEAN_MOTION,ECCENTRICITY,INCLINATION,RA_OF_ASC_NODE,ARG_OF_PERICENTER,MEAN_ANOMALY,BSTAR,MEAN_MOTION_DOT,MEAN_MOTION_DDOT,TLE_LINE0,TLE_LINE1,TLE_LINE2,SEMIMAJOR_AXIS,PERIOD,APOGEE,PERIGEE,DECAYED
54789.0,STARLINK-5446,PAYLOAD,2023-03-16 14:00:01,15.43850676,0.0001447,53.2175,225.2803,43.0555,252.3881,-0.021291,-0.00902422,0.0,0 STARLINK-5446,1 54789U 22175AH  23075.58334491 -.00902422  00000-0 -21291-1 0  9991,2 54789  53.2175 225.2803 0001447  43.0555 252.3881 15.43850676 13725,6812.894,93.273,435.745,433.773,0.0
54789.0,STARLINK-5446,PAYLOAD,2023-03-16 22:00:00,15.43208279,0.0001575,53.2174,223.7037,36.6962,312.0182,-0.022082,-0.00914688,0.0,0 STARLINK-5446,1 54789U 22175AH  23075.91667824 -.00914688  00000-0 -22082-1 0  9993,2 54789  53.2174 223.7037 0001575  36.6962 312.0182 15.43208279  1303,6814.785,93.312,437.723,435.576,0.0
54789.0,STARLINK-5446,PAYLOAD,2023-03-17 06:00:00,15.42553529,0.000442,53.2173,222.1252,279.7046,121.507,-0.022517,-0.00913147,0.0,0 STARLINK-5446,1 54789U 22175AH  23076.25001157 -.00913147  00000-0 -22517-1 0  9994,2 54789  53.2173 222.1252 0004420 279.7046 121.5070 15.42553529 13839,6816.713,93.352,441.591,435.565,0.0
54789.0,STARLINK-5446,PAYLOAD,2023-03-17 14:00:01,15.4190166,0.000207,53.2173,220.551,29.1096,63.8115,-0.022911,-0.00908675,0.0,0 STARLINK-5446,1 54789U 22175AH  23076.58334491 -.00908675  00000-0 -22911-1 0  9998,2 54789  53.2173 220.5510 0002070  29.1096  63.8115 15.41901660 13884,6818.634,93.391,441.911,439.088,0.0
54789.0,STARLINK-5446,PAYLOAD,2023-03-17 22:00:00,15.41266036,0.0001745,53.2167,218.979,40.4722,103.3703,-0.024032,-0.00930967,0.0,0 STARLINK-5446,1 54789U 22175AH  23076.91667824 -.00930967  00000-0 -24032-1 0  9999,2 54789  53.2167 218.9790 0001745  40.4722 103.3703 15.41266036  1306,6820.509,93.43,443.564,441.184,0.0
54789.0,STARLINK-5446,PAYLOAD,2023-03-18 14:00:01,15.39950408,0.0001686,53.2173,215.8366,41.725,201.6331,-0.024498,-0.00910089,0.0,0 STARLINK-5446,1 54789U 22175AH  23077.58334491 -.00910089  00000-0 -24498-1 0  9993,2 54789  53.2173 215.8366 0001686  41.7250 201.6331 15.39950408 14035,6824.393,93.51,447.408,445.107,0.0
54789.0,STARLINK-5446,PAYLOAD,2023-03-18 22:00:00,15.39303926,0.0001626,53.2168,214.2686,38.5294,253.4083,-0.025245,-0.00917327,0.0,0 STARLINK-5446,1 54789U 22175AH  23077.91667824 -.00917327  00000-0 -25245-1 0  9992,2 54789  53.2168 214.2686 0001626  38.5294 253.4083 15.39303926  1305,6826.303,93.549,449.278,447.058,0.0
54789.0,STARLINK-5446,PAYLOAD,2023-03-19 14:00:01,15.37996344,0.0001526,53.2173,211.1354,43.9318,342.8249,-0.026096,-0.00909021,0.0,0 STARLINK-5446,1 54789U 22175AH  23078.58334491 -.00909021  00000-0 -26096-1 0  9994,2 54789  53.2173 211.1354 0001526  43.9318 342.8249 15.37996344  1302,6830.172,93.628,453.079,450.995,0.0
54789.0,STARLINK-5446,PAYLOAD,2023-03-19 22:00:00,15.37347902,0.0001629,53.2171,209.5721,40.4649,32.5253,-0.026762,-0.00912394,0.0,0 STARLINK-5446,1 54789U 22175AH  23078.91667824 -.00912394  00000-0 -26762-1 0  9997,2 54789  53.2171 209.5721 0001629  40.4649  32.5253 15.37347902  1300,6832.092,93.668,455.07,452.845,0.0
54789.0,STARLINK-5446,PAYLOAD,2023-03-20 14:00:01,15.36069027,0.0001657,53.2169,206.4476,42.233,120.8701,-0.029016,-0.00945926,0.0,0 STARLINK-5446,1 54789U 22175AH  23079.58334491 -.00945926  00000-0 -29016-1 0  9994,2 54789  53.2169 206.4476 0001657  42.2330 120.8701 15.36069027 14343,6835.884,93.746,458.882,456.616,0.0
54789.0,STARLINK-5446,PAYLOAD,2023-03-20 22:00:01,15.35402099,0.0001755,53.2166,204.8893,40.6948,166.3673,-0.028898,-0.00923992,0.0,0 STARLINK-5446,1 54789U 22175AH  23079.91668981 -.00923992  00000-0 -28898-1 0  9991,2 54789  53.2166 204.8893 0001755  40.6948 166.3673 15.35402099  1305,6837.863,93.787,460.928,458.528,0.0
54789.0,STARLINK-5446,PAYLOAD,2023-03-21 14:00:01,15.34036091,0.0001121,53.2173,201.7749,75.8646,216.655,-0.02692,-0.00831172,0.0,0 STARLINK-5446,1 54789U 22175AH  23080.58335648 -.00831172  00000-0 -26920-1 0  9999,2 54789  53.2173 201.7749 0001121  75.8646 216.6550 15.34036091 14492,6841.922,93.87,464.554,463.02,0.0
54789.0,STARLINK-5446,PAYLOAD,2023-03-22 00:00:00,15.33279735,0.0001585,53.2173,199.8316,43.8677,30.3663,-0.03055,-0.00913581,0.0,0 STARLINK-5446,1 54789U 22175AH  23081.00001157 -.00913581  00000-0 -30550-1 0  9991,2 54789  53.2173 199.8316 0001585  43.8677  30.3663 15.33279735  1307,6844.172,93.916,467.122,464.952,0.0
54789.0,STARLINK-5446,PAYLOAD,2023-03-22 06:00:00,15.3278926,0.0001554,53.2174,198.6659,41.4462,333.2849,-0.030912,-0.0091041,0.0,0 STARLINK-5446,1 54789U 22175AH  23081.25001157 -.00910410  00000-0 -30912-1 0  9998,2 54789  53.2174 198.6659 0001554  41.4462 333.2849 15.32789260 14603,6845.632,93.946,468.561,466.433,0.0
54789.0,STARLINK-5446,PAYLOAD,2023-03-22 22:00:00,15.31488533,0.0001482,53.2173,195.5656,52.2145,41.6859,-0.03225,-0.00911524,0.0,0 STARLINK-5446,1 54789U 22175AH  23081.91667824 -.00911524  00000-0 -32250-1 0  9994,2 54789  53.2173 195.5656 0001482  52.2145  41.6859 15.31488533  1305,6849.507,94.026,472.388,470.357,0.0
54789.0,STARLINK-5446,PAYLOAD,2023-03-23 06:00:00,15.30837737,0.0001469,53.2176,194.0159,58.5904,73.7226,-0.032959,-0.00912648,0.0,0 STARLINK-5446,1 54789U 22175AH  23082.25001157 -.00912648  00000-0 -32959-1 0  9997,2 54789  53.2176 194.0159 0001469  58.5904  73.7226 15.30837737 14757,6851.449,94.066,474.32,472.307,0.0
54789.0,STARLINK-5446,PAYLOAD,2023-03-23 14:00:01,15.3018674,0.0001988,53.2175,192.47,36.8507,133.1548,-0.033611,-0.00912128,0.0,0 STARLINK-5446,1 54789U 22175AH  23082.58335648 -.00912128  00000-0 -33611-1 0  9997,2 54789  53.2175 192.4700 0001988  36.8507 133.1548 15.30186740  1300,6853.392,94.106,476.619,473.894,0.0
54789.0,STARLINK-5446,PAYLOAD,2023-03-24 17:00:11,15.27986191,0.0001539,53.2177,187.2604,52.0755,194.7282,-0.035726,-0.00906141,0.0,0 STARLINK-5446,1 54789U 22175AH  23083.70846065 -.00906141  00000-0 -35726-1 0  9999,2 54789  53.2177 187.2604 0001539  52.0755 194.7282 15.27986191 14973,6859.97,94.242,482.891,480.779,0.0
54789.0,STARLINK-5446,PAYLOAD,2023-03-24 22:00:01,15.27587251,0.0001692,53.2168,186.2968,40.0422,272.6578,-0.036756,-0.00931341,0.0,0 STARLINK-5446,1 54789U 22175AH  23083.91668981 -.00931341  00000-0 -36756-1 0  9995,2 54789  53.2168 186.2968 0001692  40.0422 272.6578 15.27587251  1304,6861.164,94.266,484.19,481.868,0.0
54789.0,STARLINK-5446,PAYLOAD,2023-03-25 14:00:01,15.26281557,0.0001432,53.2177,183.2206,52.2105,327.0799,-0.037938,-0.00924245,0.0,0 STARLINK-5446,1 54789U 22175AH  23084.58334491 -.00924245  00000-0 -37938-1 0  9993,2 54789  53.2177 183.2206 0001432  52.2105 327.0799 15.26281557 15114,6865.077,94.347,487.925,485.959,0.0
54789.0,STARLINK-5446,PAYLOAD,2023-03-26 00:00:00,15.25467003,0.0001718,53.2175,181.2993,44.9244,104.437,-0.038806,-0.00922512,0.0,0 STARLINK-5446,1 54789U 22175AH  23085.00001157 -.00922512  00000-0 -38806-1 0  9991,2 54789  53.2175 181.2993 0001718  44.9244 104.4370 15.25467003  1301,6867.52,94.397,490.565,488.206,0.0
54789.0,STARLINK-5446,PAYLOAD,2023-03-26 14:00:01,15.24308638,0.0001625,53.2178,178.6164,51.7432,61.6705,-0.038913,-0.00895333,0.0,0 STARLINK-5446,1 54789U 22175AH  23085.58334491 -.00895333  00000-0 -38913-1 0  9993,2 54789  53.2178 178.6164 0001625  51.7432  61.6705 15.24308638 15269,6870.999,94.469,493.981,491.748,0.0
54789.0,STARLINK-5446,PAYLOAD,2023-03-27 00:00:00,15.23514688,0.0001549,53.2175,176.7007,52.206,188.3355,-0.041194,-0.00923354,0.0,0 STARLINK-5446,1 54789U 22175AH  23086.00001157 -.00923354  00000-0 -41194-1 0  9991,2 54789  53.2175 176.7007 0001549  52.2060 188.3355 15.23514688  1300,6873.386,94.518,496.316,494.186,0.0
54789.0,STARLINK-5446,PAYLOAD,2023-03-27 06:00:00,15.23015158,0.0001712,53.2176,175.5528,47.8417,124.3999,-0.040983,-0.00906347,0.0,0 STARLINK-5446,1 54789U 22175AH  23086.25001157 -.00906347  00000-0 -40983-1 0  9996,2 54789  53.2176 175.5528 0001712  47.8417 124.3999 15.23015158 15367,6874.889,94.549,497.931,495.577,0.0
54789.0,STARLINK-5446,PAYLOAD,2023-03-27 14:00:01,15.22356583,0.0001521,53.2177,174.0261,65.5827,134.9035,-0.041266,-0.00895674,0.0,0 STARLINK-5446,1 54789U 22175AH  23086.58334491 -.00895674  00000-0 -41266-1 0  9997,2 54789  53.2177 174.0261 0001521  65.5827 134.9035 15.22356583  1302,6876.872,94.59,499.783,497.691,0.0
54789.0,STARLINK-5446,PAYLOAD,2023-03-27 22:00:00,15.21654353,0.0001498,53.2172,172.4981,54.0683,173.903,-0.038495,-0.0081406,0.0,0 STARLINK-5446,1 54789U 22175AH  23086.91667824 -.00814060  00000-0 -38495-1 0  9993,2 54789  53.2172 172.4981 0001498  54.0683 173.9030 15.21654353 15469,6878.987,94.634,501.883,499.822,0.0
54789.0,STARLINK-5446,PAYLOAD,2023-03-28 06:00:00,15.21072999,0.0001564,53.2174,170.9714,50.8622,203.7541,-0.044212,-0.00921842,0.0,0 STARLINK-5446,1 54789U 22175AH  23087.25001157 -.00921842  00000-0 -44212-1 0  9993,2 54789  53.2174 170.9714 0001564  50.8622 203.7541 15.21072999 15514,6880.74,94.67,503.681,501.529,0.0
54789.0,STARLINK-5446,PAYLOAD,2023-03-28 14:00:01,15.20415795,0.0001354,53.2177,169.4492,67.5847,212.9285,-0.044604,-0.00912868,0.0,0 STARLINK-5446,1 54789U 22175AH  23087.58334491 -.00912868  00000-0 -44604-1 0  9992,2 54789  53.2177 169.4492 0001354  67.5847 212.9285 15.20415795  1307,6882.722,94.711,505.519,503.656,0.0
54789.0,STARLINK-5446,PAYLOAD,2023-03-28 22:00:00,15.19762767,0.0001388,53.2174,167.9256,57.6278,248.0007,-0.045375,-0.00911182,0.0,0 STARLINK-5446,1 54789U 22175AH  23087.91667824 -.00911182  00000-0 -45375-1 0  9992,2 54789  53.2174 167.9256 0001388  57.6278 248.0007 15.19762767  1304,6884.694,94.752,507.515,505.603,0.0
54789.0,STARLINK-5446,PAYLOAD,2023-03-29 06:00:00,15.19116364,0.0001555,53.2174,166.404,46.0345,283.9224,-0.046529,-0.00916503,0.0,0 STARLINK-5446,1 54789U 22175AH  23088.25001157 -.00916503  00000-0 -46529-1 0  9995,2 54789  53.2174 166.4040 0001555  46.0345 283.9224 15.19116364 15661,6886.647,94.792,509.583,507.441,0.0
